ONEWEB-0597             
1 54663U 22166X   25254.64804322 -.00000021  00000+0 -81649-4 0  9994
2 54663  87.9213 299.5781 0002038  91.7663 268.3705 13.21823489134743
ONEWEB-0600             
1 54664U 22166Y   25254.63068819  .00000033  00000+0  47225-4 0  9990
2 54664  87.9205 299.5744 0001948  90.7966 269.3392 13.21823396134715
ONEWEB-0601             
1 54665U 22166Z   25254.62277639  .00000028  00000+0  36340-4 0  9992
2 54665  87.9212 299.5930 0002225  89.9853 270.1536 13.21822538134903
ONEWEB-0602             
1 54666U 22166AA  25255.57138304 -.00000021  00000+0 -82828-4 0  9990
2 54666  87.9212 299.4057 0001792  84.0932 276.0407 13.21823426134870
ONEWEB-0603             
1 54667U 22166AB  25255.57692280 -.00000019  00000+0 -76780-4 0  9996
2 54667  87.9209 299.3388 0002016  91.9223 268.2142 13.21827404134805
ONEWEB-0604             
1 54668U 22166AC  25255.41289050  .00000006  00000+0 -17772-4 0  9998
2 54668  87.9209 299.3969 0001949  91.1811 268.9547 13.21824297134746
ONEWEB-0605             
1 54669U 22166AD  25254.64965736  .00000055  00000+0  10280-3 0  9994
2 54669  87.9213 299.5786 0002568  92.7433 267.3995 13.21828753134714
ONEWEB-0606             
1 54670U 22166AE  25255.58006595 -.00000066  00000+0 -19109-3 0  9992
2 54670  87.9210 299.4038 0001851 100.3874 259.7469 13.21824713134893
